CCSDS_OMM_VERS = 2.0
CREATION_DATE  = 
ORIGINATOR     = 

OBJECT_NAME    = STARLINK-35416
OBJECT_ID      = 2025-245Q
CENTER_NAME    = EARTH
REF_FRAME      = TEME
TIME_SYSTEM    = UTC
MEAN_ELEMENT_THEORY = SGP/SGP4

EPOCH          = 2025-11-06T14:00:01.000224
MEAN_MOTION    = 15.91893018
ECCENTRICITY   = .0000579
INCLINATION    = 53.1535
RA_OF_ASC_NODE = 143.6990
ARG_OF_PERICENTER = 79.2479
MEAN_ANOMALY   = 39.6840

EPHEMERIS_TYPE = 0
CLASSIFICATION_TYPE = U
NORAD_CAT_ID   = 66248
ELEMENT_SET_NO = 999
REV_AT_EPOCH   = 229
BSTAR          = 0
MEAN_MOTION_DOT = -.3503E-4
MEAN_MOTION_DDOT = .11075E-4

CCSDS_OMM_VERS = 2.0
CREATION_DATE  = 
ORIGINATOR     = 

OBJECT_NAME    = STARLINK-35304
OBJECT_ID      = 2025-245R
CENTER_NAME    = EARTH
REF_FRAME      = TEME
TIME_SYSTEM    = UTC
MEAN_ELEMENT_THEORY = SGP/SGP4

EPOCH          = 2025-11-06T14:00:01.000224
MEAN_MOTION    = 15.91893018
ECCENTRICITY   = .0000579
INCLINATION    = 53.1535
RA_OF_ASC_NODE = 143.6990
ARG_OF_PERICENTER = 79.2479
MEAN_ANOMALY   = 39.6840

EPHEMERIS_TYPE = 0
CLASSIFICATION_TYPE = U
NORAD_CAT_ID   = 66249
ELEMENT_SET_NO = 999
REV_AT_EPOCH   = 229
BSTAR          = 0
MEAN_MOTION_DOT = -.3503E-4
MEAN_MOTION_DDOT = .11075E-4

CCSDS_OMM_VERS = 2.0
CREATION_DATE  = 
ORIGINATOR     = 

OBJECT_NAME    = STARLINK-35338
OBJECT_ID      = 2025-245S
CENTER_NAME    = EARTH
REF_FRAME      = TEME
TIME_SYSTEM    = UTC
MEAN_ELEMENT_THEORY = SGP/SGP4

EPOCH          = 2025-11-06T14:00:01.000224
MEAN_MOTION    = 15.91893018
ECCENTRICITY   = .0000579
INCLINATION    = 53.1535
RA_OF_ASC_NODE = 143.6990
ARG_OF_PERICENTER = 79.2479
MEAN_ANOMALY   = 39.6840

EPHEMERIS_TYPE = 0
CLASSIFICATION_TYPE = U
NORAD_CAT_ID   = 66250
ELEMENT_SET_NO = 999
REV_AT_EPOCH   = 229
BSTAR          = 0
MEAN_MOTION_DOT = -.3503E-4
MEAN_MOTION_DDOT = .11075E-4

CCSDS_OMM_VERS = 2.0
CREATION_DATE  = 
ORIGINATOR     = 

OBJECT_NAME    = STARLINK-35485
OBJECT_ID      = 2025-245T
CENTER_NAME    = EARTH
REF_FRAME      = TEME
TIME_SYSTEM    = UTC
MEAN_ELEMENT_THEORY = SGP/SGP4

EPOCH          = 2025-11-06T14:00:01.000224
MEAN_MOTION    = 15.91893018
ECCENTRICITY   = .0000579
INCLINATION    = 53.1535
RA_OF_ASC_NODE = 143.6990
ARG_OF_PERICENTER = 79.2479
MEAN_ANOMALY   = 39.6840

EPHEMERIS_TYPE = 0
CLASSIFICATION_TYPE = U
NORAD_CAT_ID   = 66251
ELEMENT_SET_NO = 999
REV_AT_EPOCH   = 229
BSTAR          = 0
MEAN_MOTION_DOT = -.3503E-4
MEAN_MOTION_DDOT = .11075E-4

CCSDS_OMM_VERS = 2.0
CREATION_DATE  = 
ORIGINATOR     = 

OBJECT_NAME    = STARLINK-35483
OBJECT_ID      = 2025-245U
CENTER_NAME    = EARTH
REF_FRAME      = TEME
TIME_SYSTEM    = UTC
MEAN_ELEMENT_THEORY = SGP/SGP4

EPOCH          = 2025-11-06T14:00:01.000224
MEAN_MOTION    = 15.91893018
ECCENTRICITY   = .0000579
INCLINATION    = 53.1535
RA_OF_ASC_NODE = 143.6990
ARG_OF_PERICENTER = 79.2479
MEAN_ANOMALY   = 39.6840

EPHEMERIS_TYPE = 0
CLASSIFICATION_TYPE = U
NORAD_CAT_ID   = 66252
ELEMENT_SET_NO = 999
REV_AT_EPOCH   = 229
BSTAR          = 0
MEAN_MOTION_DOT = -.3503E-4
MEAN_MOTION_DDOT = .11075E-4

CCSDS_OMM_VERS = 2.0
CREATION_DATE  = 
ORIGINATOR     = 

OBJECT_NAME    = STARLINK-35486
OBJECT_ID      = 2025-245V
CENTER_NAME    = EARTH
REF_FRAME      = TEME
TIME_SYSTEM    = UTC
MEAN_ELEMENT_THEORY = SGP/SGP4

EPOCH          = 2025-11-06T14:00:01.000224
MEAN_MOTION    = 15.91893018
ECCENTRICITY   = .0000579
INCLINATION    = 53.1535
RA_OF_ASC_NODE = 143.6990
ARG_OF_PERICENTER = 79.2479
MEAN_ANOMALY   = 39.6840

EPHEMERIS_TYPE = 0
CLASSIFICATION_TYPE = U
NORAD_CAT_ID   = 66253
ELEMENT_SET_NO = 999
REV_AT_EPOCH   = 229
BSTAR          = 0
MEAN_MOTION_DOT = -.3503E-4
MEAN_MOTION_DDOT = .11075E-4

CCSDS_OMM_VERS = 2.0
CREATION_DATE  = 
ORIGINATOR     = 

OBJECT_NAME    = STARLINK-35488
OBJECT_ID      = 2025-245W
CENTER_NAME    = EARTH
REF_FRAME      = TEME
TIME_SYSTEM    = UTC
MEAN_ELEMENT_THEORY = SGP/SGP4

EPOCH          = 2025-11-06T14:00:01.000224
MEAN_MOTION    = 15.91893018
ECCENTRICITY   = .0000579
INCLINATION    = 53.1535
RA_OF_ASC_NODE = 143.6990
ARG_OF_PERICENTER = 79.2479
MEAN_ANOMALY   = 39.6840

EPHEMERIS_TYPE = 0
CLASSIFICATION_TYPE = U
NORAD_CAT_ID   = 66254
ELEMENT_SET_NO = 999
REV_AT_EPOCH   = 229
BSTAR          = 0
MEAN_MOTION_DOT = -.3503E-4
MEAN_MOTION_DDOT = .11075E-4

CCSDS_OMM_VERS = 2.0
CREATION_DATE  = 
ORIGINATOR     = 

OBJECT_NAME    = STARLINK-35616
OBJECT_ID      = 2025-245X
CENTER_NAME    = EARTH
REF_FRAME      = TEME
TIME_SYSTEM    = UTC
MEAN_ELEMENT_THEORY = SGP/SGP4

EPOCH          = 2025-11-06T14:00:01.000224
MEAN_MOTION    = 15.91893018
ECCENTRICITY   = .0000579
INCLINATION    = 53.1535
RA_OF_ASC_NODE = 143.6990
ARG_OF_PERICENTER = 79.2479
MEAN_ANOMALY   = 39.6840

EPHEMERIS_TYPE = 0
CLASSIFICATION_TYPE = U
NORAD_CAT_ID   = 66255
ELEMENT_SET_NO = 999
REV_AT_EPOCH   = 229
BSTAR          = 0
MEAN_MOTION_DOT = -.3503E-4
MEAN_MOTION_DDOT = .11075E-4

CCSDS_OMM_VERS = 2.0
CREATION_DATE  = 
ORIGINATOR     = 

OBJECT_NAME    = STARLINK-35619
OBJECT_ID      = 2025-245Y
CENTER_NAME    = EARTH
REF_FRAME      = TEME
TIME_SYSTEM    = UTC
MEAN_ELEMENT_THEORY = SGP/SGP4

EPOCH          = 2025-11-06T14:00:01.000224
MEAN_MOTION    = 15.91893018
ECCENTRICITY   = .0000579
INCLINATION    = 53.1535
RA_OF_ASC_NODE = 143.6990
ARG_OF_PERICENTER = 79.2479
MEAN_ANOMALY   = 39.6840

EPHEMERIS_TYPE = 0
CLASSIFICATION_TYPE = U
NORAD_CAT_ID   = 66256
ELEMENT_SET_NO = 999
REV_AT_EPOCH   = 229
BSTAR          = 0
MEAN_MOTION_DOT = -.3503E-4
MEAN_MOTION_DDOT = .11075E-4

CCSDS_OMM_VERS = 2.0
CREATION_DATE  = 
ORIGINATOR     = 

OBJECT_NAME    = STARLINK-35615
OBJECT_ID      = 2025-245Z
CENTER_NAME    = EARTH
REF_FRAME      = TEME
TIME_SYSTEM    = UTC
MEAN_ELEMENT_THEORY = SGP/SGP4

EPOCH          = 2025-11-06T14:00:01.000224
MEAN_MOTION    = 15.91893018
ECCENTRICITY   = .0000579
INCLINATION    = 53.1535
RA_OF_ASC_NODE = 143.6990
ARG_OF_PERICENTER = 79.2479
MEAN_ANOMALY   = 39.6840

EPHEMERIS_TYPE = 0
CLASSIFICATION_TYPE = U
NORAD_CAT_ID   = 66257
ELEMENT_SET_NO = 999
REV_AT_EPOCH   = 229
BSTAR          = 0
MEAN_MOTION_DOT = -.3503E-4
MEAN_MOTION_DDOT = .11075E-4

CCSDS_OMM_VERS = 2.0
CREATION_DATE  = 
ORIGINATOR     = 

OBJECT_NAME    = STARLINK-34650
OBJECT_ID      = 2025-245AA
CENTER_NAME    = EARTH
REF_FRAME      = TEME
TIME_SYSTEM    = UTC
MEAN_ELEMENT_THEORY = SGP/SGP4

EPOCH          = 2025-11-06T14:00:01.000224
MEAN_MOTION    = 15.91893018
ECCENTRICITY   = .0000579
INCLINATION    = 53.1535
RA_OF_ASC_NODE = 143.6990
ARG_OF_PERICENTER = 79.2479
MEAN_ANOMALY   = 39.6840

EPHEMERIS_TYPE = 0
CLASSIFICATION_TYPE = U
NORAD_CAT_ID   = 66258
ELEMENT_SET_NO = 999
REV_AT_EPOCH   = 229
BSTAR          = 0
MEAN_MOTION_DOT = -.3503E-4
MEAN_MOTION_DDOT = .11075E-4

CCSDS_OMM_VERS = 2.0
CREATION_DATE  = 
ORIGINATOR     = 

OBJECT_NAME    = STARLINK-35529
OBJECT_ID      = 2025-245AB
CENTER_NAME    = EARTH
REF_FRAME      = TEME
TIME_SYSTEM    = UTC
MEAN_ELEMENT_THEORY = SGP/SGP4

EPOCH          = 2025-11-06T14:00:01.000224
MEAN_MOTION    = 15.91893018
ECCENTRICITY   = .0000579
INCLINATION    = 53.1535
RA_OF_ASC_NODE = 143.6990
ARG_OF_PERICENTER = 79.2479
MEAN_ANOMALY   = 39.6840

EPHEMERIS_TYPE = 0
CLASSIFICATION_TYPE = U
NORAD_CAT_ID   = 66259
ELEMENT_SET_NO = 999
REV_AT_EPOCH   = 229
BSTAR          = 0
MEAN_MOTION_DOT = -.3503E-4
MEAN_MOTION_DDOT = .11075E-4

