STARLINK-35416          
1 66248U 25245Q   25310.58334491 -.00003503  11075-4  00000+0 0  9991
2 66248  53.1535 143.6990 0000579  79.2479  39.6840 15.91893018  2299
STARLINK-35304          
1 66249U 25245R   25310.58334491 -.00003503  11075-4  00000+0 0  9992
2 66249  53.1535 143.6990 0000579  79.2479  39.6840 15.91893018  2290
STARLINK-35338          
1 66250U 25245S   25310.58334491 -.00003503  11075-4  00000+0 0  9994
2 66250  53.1535 143.6990 0000579  79.2479  39.6840 15.91893018  2292
STARLINK-35485          
1 66251U 25245T   25310.58334491 -.00003503  11075-4  00000+0 0  9995
2 66251  53.1535 143.6990 0000579  79.2479  39.6840 15.91893018  2293
STARLINK-35483          
1 66252U 25245U   25310.58334491 -.00003503  11075-4  00000+0 0  9996
2 66252  53.1535 143.6990 0000579  79.2479  39.6840 15.91893018  2294
STARLINK-35486          
1 66253U 25245V   25310.58334491 -.00003503  11075-4  00000+0 0  9997
2 66253  53.1535 143.6990 0000579  79.2479  39.6840 15.91893018  2295
STARLINK-35488          
1 66254U 25245W   25310.58334491 -.00003503  11075-4  00000+0 0  9998
2 66254  53.1535 143.6990 0000579  79.2479  39.6840 15.91893018  2296
STARLINK-35616          
1 66255U 25245X   25310.58334491 -.00003503  11075-4  00000+0 0  9999
2 66255  53.1535 143.6990 0000579  79.2479  39.6840 15.91893018  2297
STARLINK-35619          
1 66256U 25245Y   25310.58334491 -.00003503  11075-4  00000+0 0  9990
2 66256  53.1535 143.6990 0000579  79.2479  39.6840 15.91893018  2298
STARLINK-35615          
1 66257U 25245Z   25310.58334491 -.00003503  11075-4  00000+0 0  9991
2 66257  53.1535 143.6990 0000579  79.2479  39.6840 15.91893018  2299
STARLINK-34650          
1 66258U 25245AA  25310.58334491 -.00003503  11075-4  00000+0 0  9992
2 66258  53.1535 143.6990 0000579  79.2479  39.6840 15.91893018  2290
STARLINK-35529          
1 66259U 25245AB  25310.58334491 -.00003503  11075-4  00000+0 0  9993
2 66259  53.1535 143.6990 0000579  79.2479  39.6840 15.91893018  2291
